38P/Stephan-Oterma,e,18.3998,77.8774,359.5375,11.25323,0.0261089,0.85980963,54.0645,07/15.0/2024,2000,g  3.5,12.0
# From MPEC 2024-AF0
39P/Oterma,e,1.6236,291.2972,110.1447,7.062250,0.0525157,0.19007795,17.9017,07/15.0/2024,2000,g  7.0,6.0
# From MPC100283
40P/Vaisala,e,11.5892,129.6028,51.3137,4.970098,0.0889522,0.63380665,316.9499,07/15.0/2024,2000,g  5.5,12.0
# From MPEC 2023-SQ0
41P/Tuttle-Giacobini-Kresak,e,9.2165,140.9735,62.2366,3.088257,0.1816075,0.65955564,121.7656,07/15.0/2024,2000,g 10.0,16.0
# From MPC 94283
42P/Neujmin,e,3.9888,150.1591,147.1772,4.876810,0.0915167,0.58406260,309.7565,07/15.0/2024,2000,g 13.0,6.0
# From MPEC 2024-A43
43P/Wolf-Harrington,e,9.3343,243.9946,223.9758,4.325577,0.1095565,0.43563736,317.6846,07/15.0/2024,2000,g  8.0,6.0
# From MPEC 2024-F34
44P/Reinmuth,e,5.8964,286.4254,58.0178,3.687727,0.1391765,0.42698514,113.3383,07/15.0/2024,2000,g  8.3,6.0
# From MPEC 2022-O01
45P/Honda-Mrkos-Pajdusakova,e,4.3238,87.6891,327.9378,3.056587,0.1844374,0.81773881,149.3589,07/15.0/2024,2000,g 13.5,8.0
# From MPEC 2024-F91
46P/Wirtanen,e,11.7498,82.1620,356.3193,3.091177,0.1813503,0.65876601,10.3192,07/15.0/2024,2000,g 14.0,6.0
# From MPEC 2023-J29
47P/Ashbrook-Jackson,e,13.0373,356.8963,357.8691,4.119625,0.1178739,0.31848038,304.6136,07/15.0/2024,2000,g  1.0,11.2
# From MPEC 2024-N80
48P/Johnson,e,12.2009,110.0651,216.7727,3.500490,0.1504911,0.42679467,325.2936,07/15.0/2024,2000,g 10.0,6.0
# From MPEC 2024-NE4
49P/Arend-Rigaux,e,19.0588,118.7947,332.9399,3.568878,0.1461862,0.59893049,320.5819,07/15.0/2024,2000,g 11.3,4.4
# From MPEC 2024-BE0
50P/Arend,e,19.0977,355.1629,49.3436,4.090273,0.1191449,0.53003198,7.5345,07/15.0/2024,2000,g  9.5,6.0
# From MPEC 2023-J29
51P/Harrington,e,5.4264,83.6597,269.2422,3.705404,0.1381818,0.54306157,90.2225,07/15.0/2024,2000,g 10.0,8.0
# From NK 3014
51P-A/Harrington,e,5.4265,269.2341,83.6484,3.706671,0.1381109,0.54325149,89.8201,07/15.0/2024,2000,g 10.0,8.0
# From MPEC 2023-J29
51P-D/Harrington,e,5.4269,83.6479,269.2604,3.705758,0.1381620,0.54319140,90.1511,07/15.0/2024,2000,g 16.0,8.0
# From MPEC 2023-XP6
52P/Harrington-Abell,e,10.2337,336.7829,139.5745,3.862564,0.1298346,0.54081568,131.5690,07/15.0/2024,2000,g 13.5,6.0
# From MPEC 2023-TM6
53P/VanBiesbroeck,e,6.6038,148.8471,134.4030,5.436746,0.0777491,0.54962751,233.5846,07/15.0/2024,2000,g  7.7,4.8
# From MPC 89011
54P/de Vico-Swift-NEAT,e,6.0643,358.8470,1.9294,3.785634,0.1338123,0.42628368,353.1853,07/15.0/2024,2000,g  9.0,4.0
# From MPC 31070
55P/Tempel-Tuttle,e,162.4969,235.4180,172.4672,10.34564,0.0296188,0.90562720,285.8936,07/15.0/2024,2000,g  9.0,4.0
# From MPEC 2023-TM6
56P/Slaughter-Burnham,e,8.1557,345.9260,44.1655,5.064035,0.0864886,0.50859432,251.7184,07/15.0/2024,2000,g  8.5,6.0
# From MPEC 2024-DC6
57P/duToit-Neujmin-Delporte,e,2.8524,188.7710,115.0772,3.442019,0.1543420,0.50080794,154.6994,07/15.0/2024,2000,g 12.5,6.0
# From MPEC 2024-A43
58P/Jackson-Neujmin,e,13.0964,159.0586,200.5705,4.089962,0.1191585,0.66214441,179.8695,07/15.0/2024,2000,g 15.5,6.0
# From MPEC 2023-A50
59P/Kearns-Kwee,e,9.3517,312.7427,127.6101,4.480632,0.1039190,0.47688627,220.8247,07/15.0/2024,2000,g  7.0,6.0
# From MPEC 2021-F20
60P/Tsuchinshan,e,3.5812,267.4326,216.9426,3.527939,0.1487382,0.53372779,304.8599,07/15.0/2024,2000,g 11.5,6.0
# From MPEC 2024-JU4
61P/Shajn-Schaldach,e,5.9987,162.9639,221.6746,3.689428,0.1390803,0.42345708,87.6637,07/15.0/2024,2000,g  6.0,10.0
# From MPEC 2024-N80
62P/Tsuchinshan,e,4.7375,68.6663,47.3091,3.369645,0.1593411,0.62459494,32.3262,07/15.0/2024,2000,g  8.0,10.0
# From MPC 84320
63P/Wild,e,19.6461,357.8576,168.8563,5.636526,0.0736524,0.65048133,306.8505,07/15.0/2024,2000,g 10.5,6.0
# From MPEC 2024-A43
64P/Swift-Gehrels,e,8.9516,299.8090,97.2913,4.452218,0.1049154,0.68869653,217.8989,07/15.0/2024,2000,g  9.5,12.0
# From MPEC 2024-NE4
65P/Gunn,e,9.1760,61.9765,213.7346,3.891400,0.1283942,0.24812224,316.7649,07/15.0/2024,2000,g  5.0,6.0
# From MPEC 2021-F20
66P/duToit,e,18.6420,21.8048,257.4482,6.070781,0.0658927,0.78513391,148.4442,07/15.0/2024,2000,g 15.0,4.0
# From MPEC 2024-C04
67P/Churyumov-Gerasimenko,e,3.8705,36.3268,22.1810,3.458234,0.1532578,0.64999388,151.0372,07/15.0/2024,2000,g 11.0,4.0
# From MPEC 2023-HD1
68P/Klemola,e,11.1054,175.0730,153.2574,4.962254,0.0891632,0.63626040,152.5835,07/15.0/2024,2000,g 12.6,4.0
# From MPEC 2024-C04
69P/Taylor,e,22.0594,104.8058,343.4416,3.882067,0.1288574,0.41454808,250.4348,07/15.0/2024,2000,g  9.5,12.0
# From MPEC 2023-VM5
70P/Kojima,e,6.6011,119.2377,1.7762,3.676113,0.1398366,0.45447234,137.6711,07/15.0/2024,2000,g 11.0,6.0
# From MPEC 2024-A43
71P/Clark,e,9.4365,59.3843,209.4705,3.150443,0.1762571,0.49361408,94.9333,07/15.0/2024,2000,g  9.8,6.0
# From MPEC 2023-VM5
72P/Denning-Fujikawa,e,10.9480,26.7032,346.7407,4.307215,0.1102578,0.81856452,43.5806,07/15.0/2024,2000,g 17.5,10.0
# From MPEC 2023-RF3
73P/Schwassmann-Wachmann,e,11.3235,69.5201,199.1983,3.081385,0.1822154,0.69163326,125.0431,07/15.0/2024,2000,g 11.5,6.0
# From NK 1613
73P-B/Schwassmann-Wachmann B,e,11.1332,198.8394,69.8799,3.084493,0.1819401,0.69092488,124.2257,07/15.0/2024,2000,g  9.0,4.0
# From NK 2710
73P-C/Schwassmann-Wachmann,e,11.1316,198.8954,69.8539,3.083228,0.1820521,0.69061226,125.0504,07/15.0/2024,2000,g  9.0,4.0
# From NK 934
73P-E/Schwassmann-Wachmann,e,11.1319,198.7698,69.9285,3.088152,0.1816168,0.69153783,122.3912,07/15.0/2024,2000,g  9.0,4.0
# From MPC 56796
73P-G/Schwassmann-Wachmann,e,11.388,69.909,198.772,3.06230,0.183922,0.6933024,359.982,06/08.0/2006,2000,g  9.0,4.0
# From MPC 56796
73P-H/Schwassmann-Wachmann,e,11.389,69.903,198.778,3.06223,0.183927,0.6933024,359.948,06/08.0/2006,2000,g  9.0,4.0
# From MPC 56796
73P-J/Schwassmann-Wachmann,e,11.386,69.983,198.673,3.06380,0.183786,0.6933024,359.974,06/08.0/2006,2000,g  9.0,4.0
# From MPC 56797
73P-K/Schwassmann-Wachmann,e,11.390,69.881,198.809,3.06176,0.183970,0.6933024,359.959,06/08.0/2006,2000,g  9.0,4.0
# From MPC 56797
73P-L/Schwassmann-Wachmann,e,11.388,69.911,198.772,3.06211,0.183938,0.6933024,359.937,06/08.0/2006,2000,g  9.0,4.0
# From MPC 56797
73P-M/Schwassmann-Wachmann,e,11.389,69.895,198.787,3.06205,0.183944,0.6933024,359.952,06/08.0/2006,2000,g  9.0,4.0
# From MPC 56797
73P-N/Schwassmann-Wachmann,e,11.389,69.909,198.754,3.06231,0.183921,0.6933024,359.952,06/08.0/2006,2000,g  9.0,4.0
# From MPC 56797
73P-P/Schwassmann-Wachmann,e,11.390,69.900,198.783,3.06222,0.183929,0.6933024,359.839,06/07.0/2006,2000,g  9.0,4.0
# From MPC 56797
73P-Q/Schwassmann-Wachmann,e,11.387,69.944,198.717,3.06298,0.183860,0.6933024,359.867,06/07.0/2006,2000,g  9.0,4.0
# From MPC 56797
73P-R/Schwassmann-Wachmann,e,11.388,69.904,198.776,3.06224,0.183927,0.6933024,359.966,06/08.0/2006,2000,g  9.0,4.0
# From MPC 56797
73P-S/Schwassmann-Wachmann,e,11.127,77.364,188.229,3.22719,0.170007,0.6933024,359.883,06/08.0/2006,2000,g  9.0,4.0
# From MPEC 2023-J29
73P-T/Schwassmann-Wachmann,e,11.3267,69.5260,199.1790,3.080141,0.1823258,0.69151091,125.3413,07/15.0/2024,2000,g  9.0,4.0
# From MPC 56797
73P-U/Schwassmann-Wachmann,e,11.384,69.994,198.659,3.06366,0.183799,0.6933024,359.997,06/09.0/2006,2000,g  9.0,4.0
# From MPC 56797
73P-V/Schwassmann-Wachmann,e,11.651,65.236,204.943,2.97417,0.192156,0.6933024,359.908,06/08.0/2006,2000,g  9.0,4.0
# From MPC 56797
73P-W/Schwassmann-Wachmann,e,11.390,69.884,198.803,3.06185,0.183962,0.6933024,359.908,06/08.0/2006,2000,g  9.0,4.0
# From MPC 56798
73P-X/Schwassmann-Wachmann,e,11.388,69.900,198.778,3.06207,0.183942,0.6933024,359.896,06/08.0/2006,2000,g  9.0,4.0
# From MPC 56798
73P-Y/Schwassmann-Wachmann,e,11.391,69.879,198.785,3.06200,0.183948,0.6933024,359.858,06/08.0/2006,2000,g  9.0,4.0
# From MPC 56798
73P-Z/Schwassmann-Wachmann,e,11.349,70.493,198.017,3.07155,0.183091,0.6933024,359.943,06/08.0/2006,2000,g  9.0,4.0
# From MPC 56798
73P-AA/Schwassmann-Wachmann,e,11.390,69.883,198.804,3.06182,0.183965,0.6933024,359.984,06/09.0/2006,2000,g  9.0,4.0
# From MPC 56798
73P-AB/Schwassmann-Wachmann,e,11.390,69.888,198.792,3.06183,0.183964,0.6933024,359.872,06/08.0/2006,2000,g  9.0,4.0
# From MPC 56798
73P-AC/Schwassmann-Wachmann,e,11.387,69.914,198.766,3.06223,0.183927,0.6933024,359.872,06/08.0/2006,2000,g  9.0,4.0
# From MPC 56798
73P-AD/Schwassmann-Wachmann,e,11.355,70.416,198.119,3.07035,0.183198,0.6933024,359.873,06/08.0/2006,2000,g  9.0,4.0
# From MPC 56798
73P-AE/Schwassmann-Wachmann,e,11.390,69.891,198.790,3.06196,0.183952,0.6933024,359.935,06/08.0/2006,2000,g  9.0,4.0
# From MPC 56798
73P-AF/Schwassmann-Wachmann,e,11.356,70.302,198.217,3.06961,0.183265,0.6933024,359.846,06/06.0/2006,2000,g  9.0,4.0
# From MPC 56798
73P-AG/Schwassmann-Wachmann,e,11.386,69.932,198.724,3.06233,0.183919,0.6933024,359.997,06/09.0/2006,2000,g  9.0,4.0
# From MPC 56798
73P-AH/Schwassmann-Wachmann,e,11.331,70.695,197.755,3.07445,0.182832,0.6933024,359.885,06/08.0/2006,2000,g  9.0,4.0
# From MPC 56798
73P-AI/Schwassmann-Wachmann,e,11.392,69.885,198.806,3.06205,0.183944,0.6933024,359.864,06/08.0/2006,2000,g  9.0,4.0
# From MPC 56799
73P-AJ/Schwassmann-Wachmann,e,11.385,70.041,198.663,3.06262,0.183892,0.6933024,359.864,06/08.0/2006,2000,g  9.0,4.0
# From MPC 56799
73P-AK/Schwassmann-Wachmann,e,11.389,69.784,198.822,3.06244,0.183909,0.6933024,359.927,06/08.0/2006,2000,g  9.0,4.0
# From MPC 56799
73P-AL/Schwassmann-Wachmann,e,11.395,69.843,198.857,3.06140,0.184003,0.6933024,359.916,06/08.0/2006,2000,g  9.0,4.0
# From MPC 56799
73P-AM/Schwassmann-Wachmann,e,11.394,69.876,198.815,3.06205,0.183944,0.6933024,359.951,06/08.0/2006,2000,g  9.0,4.0
# From MPC 56799
73P-AN/Schwassmann-Wachmann,e,11.393,69.870,198.820,3.06185,0.183962,0.6933024,359.940,06/08.0/2006,2000,g  9.0,4.0
# From MPC 56799
73P-AO/Schwassmann-Wachmann,e,11.210,71.286,197.007,3.07823,0.182496,0.6933024,359.853,06/07.0/2006,2000,g  9.0,4.0
# From MPC 56799
73P-AP/Schwassmann-Wachmann,e,11.393,69.895,198.794,3.06223,0.183928,0.6933024,359.874,06/06.0/2006,2000,g  9.0,4.0
# From MPC 56799
